{"type": "FeatureCollection", "features": [{"type": "Feature", "properties": {"region": "Centrale", "superficie_km2": 13121.61026111}, "geometry": {"type": "Polygon", "coordinates": [[[1.22929, 8.34692], [1.231, 8.34076], [1.231, 8.33048], [1.22963, 8.32569], [1.22929, 8.30137], [1.22998, 8.29589], [1.23237, 8.28939], [1.23751, 8.28322], [1.24008, 8.27505], [1.24872, 8.26939], [1.25458, 8.26014], [1.2599, 8.24603], [1.25088, 8.24211], [1.24603, 8.23741], [1.24288, 8.22041], [1.24337, 8.21654], [1.24627, 8.21048], [1.25185, 8.20418], [1.26033, 8.1991], [1.26275, 8.19352], [1.26444, 8.18626], [1.2642, 8.16567], [1.26372, 8.15791], [1.26226, 8.15137], [1.25936, 8.14653], [1.25645, 8.13248], [1.25621, 8.10655], [1.25464, 8.10236], [1.24786, 8.09969], [1.24132, 8.09993], [1.23381, 8.09896], [1.23042, 8.09557], [1.23042, 8.09194], [1.23696, 8.08709], [1.2481, 8.08201], [1.2507, 8.07832], [1.25221, 8.06912], [1.251, 8.05677], [1.24858, 8.05193], [1.23574, 8.03715], [1.23476, 8.03228], [1.22659, 8.03119], [1.21675, 8.03346], [1.20804, 8.02514], [1.20615, 8.02438], [1.19745, 8.01529], [1.19555, 8.00053], [1.18571, 7.98993], [1.16981, 7.98539], [1.15429, 7.97252], [1.14856, 7.96607], [1.1418, 7.96192], [1.12515, 7.95776], [1.10054, 7.95435], [1.09449, 7.95246], [1.07442, 7.94905], [1.05928, 7.94981], [1.05209, 7.95473], [1.03847, 7.9606], [1.02987, 7.96431], [1.01806, 7.96643], [1.00534, 7.96764], [0.9793, 7.9743], [0.96991, 7.97885], [0.96325, 7.98097], [0.94629, 7.97491], [0.94084, 7.97158], [0.93084, 7.96794], [0.91903, 7.96461], [0.91268, 7.96461], [0.89905, 7.96128], [0.88451, 7.95946], [0.86816, 8.02215], [0.8618, 8.03184], [0.85317, 8.03593], [0.83712, 8.03874], [0.83353, 8.01654], [0.83523, 8.00661], [0.83426, 8.00201], [0.83159, 7.99862], [0.83388, 7.99392], [0.83111, 7.98384], [0.83014, 7.97439], [0.83161, 7.96818], [0.82593, 7.9538], [0.82063, 7.9485], [0.80927, 7.94244], [0.79603, 7.93828], [0.77307, 7.93235], [0.75846, 7.93912], [0.74762, 7.94222], [0.73435, 7.94727], [0.72306, 7.94992], [0.71729, 7.95001], [0.71265, 7.95186], [0.7101, 7.95872], [0.70953, 7.96459], [0.70139, 7.96326], [0.69288, 7.95967], [0.69004, 7.95569], [0.68966, 7.94774], [0.69056, 7.94266], [0.69515, 7.9362], [0.70007, 7.92106], [0.68493, 7.90213], [0.67868, 7.89702], [0.66619, 7.89399], [0.65408, 7.89361], [0.63969, 7.89399], [0.61602, 7.89098], [0.61509, 7.89778], [0.61168, 7.90686], [0.61357, 7.92087], [0.60941, 7.92352], [0.59768, 7.97575], [0.60108, 7.99998], [0.60722, 8.00368], [0.60657, 8.00887], [0.60203, 8.02553], [0.59673, 8.03802], [0.59862, 8.04597], [0.59219, 8.07133], [0.59105, 8.0895], [0.59105, 8.10843], [0.59159, 8.12118], [0.59547, 8.13552], [0.60289, 8.14033], [0.60354, 8.14439], [0.60316, 8.16142], [0.60241, 8.16823], [0.59938, 8.17883], [0.59143, 8.18754], [0.58954, 8.19662], [0.59446, 8.20533], [0.61339, 8.21631], [0.62386, 8.22069], [0.6258, 8.23213], [0.632, 8.23794], [0.63781, 8.24822], [0.64111, 8.25732], [0.64363, 8.25868], [0.65315, 8.25945], [0.65858, 8.25877], [0.66868, 8.26027], [0.67553, 8.26282], [0.67696, 8.26607], [0.68485, 8.27583], [0.69313, 8.28056], [0.70143, 8.28205], [0.713, 8.28031], [0.72454, 8.28326], [0.72811, 8.28975], [0.73021, 8.30308], [0.73049, 8.31712], [0.72969, 8.32935], [0.7302, 8.33165], [0.7235, 8.33759], [0.71986, 8.34297], [0.72197, 8.35269], [0.71472, 8.35733], [0.71444, 8.36405], [0.71358, 8.36464], [0.71408, 8.38416], [0.70858, 8.38766], [0.70808, 8.39617], [0.70207, 8.39867], [0.69757, 8.39767], [0.69356, 8.40268], [0.68555, 8.40968], [0.67705, 8.41419], [0.66453, 8.4197], [0.65853, 8.43071], [0.65614, 8.46244], [0.65552, 8.46274], [0.64952, 8.48326], [0.64451, 8.49127], [0.6285, 8.50028], [0.62449, 8.50929], [0.61728, 8.51354], [0.61498, 8.51329], [0.60047, 8.5178], [0.58545, 8.5218], [0.57844, 8.52681], [0.55842, 8.55033], [0.54892, 8.55483], [0.5369, 8.55934], [0.5374, 8.56434], [0.5329, 8.57385], [0.52789, 8.57385], [0.51888, 8.56785], [0.51338, 8.56935], [0.50937, 8.57586], [0.50337, 8.57886], [0.50087, 8.58286], [0.49586, 8.59437], [0.49136, 8.59788], [0.48435, 8.59938], [0.47284, 8.59788], [0.46633, 8.60589], [0.44981, 8.63291], [0.4378, 8.65343], [0.4343, 8.66295], [0.42279, 8.67796], [0.40627, 8.70148], [0.38775, 8.72451], [0.38224, 8.73552], [0.37674, 8.74903], [0.38124, 8.74953], [0.38475, 8.75204], [0.38625, 8.75754], [0.39125, 8.75754], [0.39576, 8.76004], [0.39526, 8.76355], [0.38825, 8.77156], [0.38425, 8.77956], [0.38575, 8.78657], [0.39125, 8.79158], [0.39626, 8.79358], [0.40827, 8.79208], [0.41328, 8.79508], [0.41878, 8.79408], [0.42379, 8.78907], [0.42679, 8.78407], [0.4323, 8.78357], [0.43628, 8.78531], [0.4378, 8.79058], [0.4323, 8.79808], [0.4373, 8.80159], [0.44181, 8.80259], [0.45182, 8.80909], [0.45532, 8.80859], [0.46583, 8.79608], [0.47134, 8.79658], [0.48385, 8.80359], [0.49136, 8.80709], [0.49736, 8.8126], [0.49886, 8.82461], [0.50237, 8.84113], [0.50486, 8.84204], [0.50378, 8.84102], [0.52468, 8.84494], [0.53275, 8.84736], [0.53939, 8.85119], [0.54411, 8.8569], [0.54992, 8.87116], [0.55342, 8.87516], [0.55993, 8.87867], [0.58295, 8.87666], [0.5909, 8.87945], [0.59248, 8.88135], [0.59098, 8.89128], [0.58667, 8.89551], [0.57904, 8.8983], [0.57804, 8.90586], [0.58134, 8.91156], [0.587, 8.91822], [0.5927, 8.91968], [0.61358, 8.92833], [0.62303, 8.9388], [0.63202, 8.94738], [0.63381, 8.9649], [0.63755, 8.97533], [0.64227, 8.98152], [0.65558, 8.98397], [0.66504, 8.9828], [0.67054, 8.98778], [0.67454, 8.99378], [0.67755, 9.00029], [0.68105, 9.00429], [0.68505, 9.0128], [0.69106, 9.01481], [0.69611, 9.01245], [0.7011, 9.0117], [0.70966, 9.01365], [0.71391, 9.01793], [0.71577, 9.02457], [0.72234, 9.04023], [0.72517, 9.04403], [0.73464, 9.05308], [0.74276, 9.04935], [0.74706, 9.04559], [0.75659, 9.0447], [0.76749, 9.05281], [0.77367, 9.05379], [0.78036, 9.05005], [0.78187, 9.03633], [0.78575, 9.02547], [0.79289, 9.02504], [0.8096, 9.01662], [0.822, 9.01338], [0.842, 9.01256], [0.85154, 9.00977], [0.86633, 9.0037], [0.87329, 9.00414], [0.87664, 9.00416], [0.89623, 9.00679], [0.90423, 9.00921], [0.92002, 9.01174], [0.94961, 9.01553], [0.95909, 9.0229], [0.96656, 9.0268], [0.9753, 9.03785], [0.97614, 9.0447], [0.98362, 9.05249], [0.99289, 9.05428], [1.0002, 9.0594], [1.00308, 9.06884], [1.00114, 9.07498], [0.99104, 9.09386], [0.98763, 9.10757], [0.98703, 9.12887], [0.98794, 9.13739], [0.98741, 9.14685], [0.98542, 9.16104], [0.98534, 9.17571], [0.9886, 9.18804], [0.99333, 9.19564], [0.9933, 9.20037], [0.99994, 9.20609], [1.00658, 9.20991], [1.01467, 9.21185], [1.01788, 9.21364], [1.02944, 9.21239], [1.04091, 9.2136], [1.07051, 9.22736], [1.08274, 9.23012], [1.09795, 9.22932], [1.10276, 9.22812], [1.11317, 9.22732], [1.11877, 9.22612], [1.12318, 9.22331], [1.13119, 9.22251], [1.1428, 9.21971], [1.15962, 9.21651], [1.16522, 9.21851], [1.17283, 9.22692], [1.17843, 9.22932], [1.1852, 9.23549], [1.19813, 9.23564], [1.20366, 9.22652], [1.21007, 9.22291], [1.22706, 9.22926], [1.23312, 9.23476], [1.24902, 9.24262], [1.26812, 9.24933], [1.28896, 9.25243], [1.29455, 9.24974], [1.31057, 9.24574], [1.31377, 9.24574], [1.3426, 9.25254], [1.35021, 9.25174], [1.36022, 9.25174], [1.36382, 9.25735], [1.36783, 9.26616], [1.37143, 9.26976], [1.37704, 9.26976], [1.37864, 9.28097], [1.37824, 9.28618], [1.37944, 9.29178], [1.38427, 9.30438], [1.38878, 9.30927], [1.413, 9.32446], [1.42142, 9.30695], [1.43114, 9.29655], [1.43697, 9.293], [1.44455, 9.28421], [1.45016, 9.2789], [1.45991, 9.26206], [1.46201, 9.25473], [1.47542, 9.24077], [1.48521, 9.23434], [1.48989, 9.22763], [1.49597, 9.22085], [1.52587, 9.19095], [1.55361, 9.17502], [1.55944, 9.16989], [1.568, 9.15311], [1.57279, 9.14489], [1.57896, 9.13187], [1.59197, 9.11715], [1.59814, 9.11098], [1.60464, 9.09934], [1.60954, 9.08815], [1.61766, 9.0716], [1.6156, 9.06269], [1.62451, 9.04214], [1.62622, 9.02536], [1.62999, 8.99899], [1.62382, 8.97468], [1.62588, 8.97228], [1.62211, 8.95516], [1.62348, 8.94557], [1.62656, 8.9144], [1.63273, 8.86029], [1.63273, 8.85241], [1.63101, 8.83906], [1.62896, 8.8305], [1.63136, 8.82091], [1.63255, 8.81183], [1.63358, 8.79608], [1.63255, 8.77895], [1.63255, 8.7221], [1.63221, 8.69539], [1.6317, 8.67946], [1.63033, 8.66131], [1.62862, 8.64761], [1.63033, 8.63357], [1.6375, 8.50892], [1.64916, 8.49076], [1.64992, 8.47812], [1.61959, 8.47007], [1.59383, 8.45528], [1.57109, 8.4498], [1.53849, 8.44021], [1.52479, 8.43774], [1.51849, 8.4339], [1.51301, 8.42815], [1.50068, 8.40322], [1.48999, 8.39281], [1.48342, 8.3824], [1.46937, 8.36816], [1.46286, 8.36576], [1.44642, 8.36199], [1.44197, 8.36165], [1.41354, 8.36302], [1.40498, 8.36268], [1.38888, 8.35891], [1.38478, 8.35514], [1.37142, 8.3548], [1.36388, 8.35103], [1.35738, 8.35103], [1.33854, 8.35959], [1.33477, 8.35822], [1.32244, 8.35857], [1.32005, 8.35788], [1.31114, 8.36336], [1.3108, 8.3661], [1.30498, 8.36473], [1.30224, 8.36644], [1.29779, 8.36542], [1.28203, 8.36781], [1.27758, 8.37261], [1.25943, 8.37227], [1.2447, 8.37295], [1.22895, 8.37843], [1.23683, 8.36131], [1.23537, 8.35972], [1.231, 8.35377], [1.22929, 8.34692]]]}, "id": "Centrale"}, {"type": "Feature", "properties": {"region": "Kara", "superficie_km2": 11770.48864715}, "geometry": {"type": "Polygon", "coordinates": [[[1.00658, 9.20991], [0.99994, 9.20609], [0.9933, 9.20037], [0.99333, 9.19564], [0.9886, 9.18804], [0.98534, 9.17571], [0.98542, 9.16104], [0.98741, 9.14685], [0.98794, 9.13739], [0.98703, 9.12887], [0.98763, 9.10757], [0.99104, 9.09386], [1.00114, 9.07498], [1.00308, 9.06884], [1.0002, 9.0594], [0.99289, 9.05428], [0.98362, 9.05249], [0.97614, 9.0447], [0.9753, 9.03785], [0.96656, 9.0268], [0.95909, 9.0229], [0.94961, 9.01553], [0.92002, 9.01174], [0.90423, 9.00921], [0.89623, 9.00679], [0.87664, 9.00416], [0.87329, 9.00414], [0.86633, 9.0037], [0.85154, 9.00977], [0.842, 9.01256], [0.822, 9.01338], [0.8096, 9.01662], [0.79289, 9.02504], [0.78575, 9.02547], [0.78187, 9.03633], [0.78036, 9.05005], [0.77367, 9.05379], [0.76749, 9.05281], [0.75659, 9.0447], [0.74706, 9.04559], [0.74276, 9.04935], [0.73464, 9.05308], [0.72517, 9.04403], [0.72234, 9.04023], [0.71577, 9.02457], [0.71391, 9.01793], [0.70966, 9.01365], [0.7011, 9.0117], [0.69611, 9.01245], [0.69106, 9.01481], [0.68505, 9.0128], [0.68105, 9.00429], [0.67755, 9.00029], [0.67454, 8.99378], [0.67054, 8.98778], [0.66504, 8.9828], [0.65558, 8.98397], [0.64227, 8.98152], [0.63755, 8.97533], [0.63381, 8.9649], [0.63202, 8.94738], [0.62303, 8.9388], [0.61358, 8.92833], [0.5927, 8.91968], [0.587, 8.91822], [0.58134, 8.91156], [0.57804, 8.90586], [0.57904, 8.8983], [0.58667, 8.89551], [0.59098, 8.89128], [0.59248, 8.88135], [0.5909, 8.87945], [0.58295, 8.87666], [0.55993, 8.87867], [0.55342, 8.87516], [0.54992, 8.87116], [0.54411, 8.8569], [0.53939, 8.85119], [0.53275, 8.84736], [0.52468, 8.84494], [0.50378, 8.84102], [0.50486, 8.84204], [0.51748, 8.85436], [0.51841, 8.85863], [0.51742, 8.86335], [0.51928, 8.86999], [0.52308, 8.87143], [0.52689, 8.87051], [0.52829, 8.87525], [0.5268, 8.88423], [0.52057, 8.89082], [0.5167, 8.89978], [0.51569, 8.90876], [0.51609, 8.9206], [0.50886, 8.93332], [0.50359, 8.93849], [0.49781, 8.94886], [0.49108, 8.95923], [0.48239, 8.97762], [0.4723, 8.9908], [0.46074, 9.01059], [0.45542, 9.02238], [0.45295, 9.03562], [0.45289, 9.04366], [0.45555, 9.07254], [0.45789, 9.07776], [0.4602, 9.08818], [0.46633, 9.09627], [0.4706, 9.09772], [0.47296, 9.10058], [0.47623, 9.10911], [0.46886, 9.14171], [0.47073, 9.14693], [0.48449, 9.15365], [0.48783, 9.1532], [0.50014, 9.16227], [0.5147, 9.19124], [0.52651, 9.20457], [0.52553, 9.20882], [0.51545, 9.22058], [0.5029, 9.24462], [0.50516, 9.26073], [0.50844, 9.26927], [0.51552, 9.27878], [0.53488, 9.30304], [0.54483, 9.31021], [0.5481, 9.3197], [0.54321, 9.33717], [0.54553, 9.3457], [0.55311, 9.35238], [0.55827, 9.36424], [0.56057, 9.37514], [0.56387, 9.38369], [0.56233, 9.39598], [0.56228, 9.40402], [0.55649, 9.41344], [0.55025, 9.4205], [0.54783, 9.42521], [0.53922, 9.42919], [0.52925, 9.43183], [0.52186, 9.44122], [0.51819, 9.44313], [0.5077, 9.44306], [0.49966, 9.44107], [0.50101, 9.45634], [0.50294, 9.45999], [0.48845, 9.47534], [0.48434, 9.47842], [0.47852, 9.47979], [0.47406, 9.48321], [0.46037, 9.4863], [0.45352, 9.49212], [0.44769, 9.49383], [0.43365, 9.49143], [0.42372, 9.49623], [0.41721, 9.49589], [0.40728, 9.49109], [0.38673, 9.48767], [0.38571, 9.48527], [0.38125, 9.48904], [0.3655, 9.49143], [0.35386, 9.49143], [0.34084, 9.48287], [0.34118, 9.47911], [0.34495, 9.47363], [0.34427, 9.46815], [0.34016, 9.46438], [0.33639, 9.45205], [0.33125, 9.4452], [0.32132, 9.44109], [0.31344, 9.44075], [0.27851, 9.42397], [0.27235, 9.42226], [0.27063, 9.42328], [0.25967, 9.42328], [0.25351, 9.42979], [0.24529, 9.42979], [0.24358, 9.43869], [0.22714, 9.45513], [0.2244, 9.47123], [0.22577, 9.47808], [0.23022, 9.48013], [0.23844, 9.47945], [0.24769, 9.47397], [0.25591, 9.47431], [0.26276, 9.47226], [0.26755, 9.475], [0.27166, 9.48048], [0.27611, 9.48321], [0.28981, 9.48561], [0.29358, 9.49041], [0.30009, 9.49349], [0.30488, 9.49794], [0.30557, 9.50308], [0.30317, 9.50685], [0.29974, 9.50822], [0.28776, 9.51712], [0.28159, 9.51815], [0.26413, 9.51506], [0.24495, 9.51575], [0.23673, 9.5202], [0.23331, 9.52534], [0.22988, 9.54178], [0.23022, 9.54692], [0.23399, 9.55205], [0.23502, 9.56712], [0.2381, 9.57055], [0.24598, 9.5702], [0.25694, 9.56267], [0.2631, 9.56335], [0.28296, 9.57329], [0.29735, 9.57226], [0.30968, 9.57397], [0.32475, 9.57466], [0.35146, 9.56849], [0.36242, 9.57192], [0.37132, 9.57774], [0.37612, 9.58493], [0.37714, 9.58904], [0.37166, 9.59657], [0.36562, 9.61152], [0.36027, 9.61955], [0.3596, 9.63025], [0.36562, 9.64363], [0.36618, 9.65144], [0.36194, 9.66212], [0.35734, 9.6641], [0.35383, 9.66848], [0.34726, 9.67133], [0.34616, 9.68426], [0.34386, 9.70103], [0.33838, 9.71221], [0.33334, 9.71747], [0.32085, 9.71813], [0.3169, 9.72032], [0.31471, 9.72448], [0.31997, 9.73632], [0.32435, 9.75341], [0.32107, 9.76525], [0.32348, 9.76832], [0.32874, 9.76876], [0.33071, 9.77336], [0.32633, 9.78563], [0.32983, 9.7944], [0.33575, 9.80076], [0.33838, 9.81194], [0.34934, 9.8275], [0.3523, 9.84098], [0.34627, 9.88361], [0.3489, 9.91057], [0.35153, 9.91758], [0.35986, 9.92503], [0.37455, 9.92766], [0.38024, 9.93249], [0.38266, 9.93709], [0.38068, 9.94454], [0.3614, 9.96536], [0.35351, 9.9772], [0.35219, 9.98619], [0.35745, 10.00789], [0.35701, 10.01753], [0.35285, 10.02542], [0.35329, 10.02871], [0.35745, 10.0309], [0.36271, 10.03046], [0.37411, 10.02454], [0.39099, 10.02367], [0.40019, 10.01665], [0.40786, 10.02219], [0.40789, 10.01947], [0.41545, 10.00901], [0.42242, 9.9942], [0.42271, 9.98635], [0.41806, 9.97619], [0.42096, 9.96399], [0.42619, 9.95847], [0.44711, 9.95644], [0.45379, 9.95266], [0.45611, 9.94714], [0.46541, 9.94394], [0.47121, 9.94801], [0.47819, 9.95121], [0.48603, 9.95353], [0.49155, 9.95121], [0.49716, 9.94666], [0.49939, 9.94162], [0.50636, 9.94133], [0.51391, 9.95034], [0.51972, 9.9515], [0.52698, 9.94336], [0.52495, 9.9361], [0.52175, 9.93291], [0.51914, 9.92739], [0.51507, 9.92478], [0.51507, 9.91664], [0.51856, 9.90822], [0.52175, 9.90677], [0.52408, 9.90154], [0.54935, 9.89282], [0.57055, 9.88498], [0.58463, 9.88137], [0.58792, 9.88591], [0.59209, 9.88635], [0.60063, 9.8892], [0.61181, 9.88701], [0.62225, 9.88338], [0.62617, 9.88352], [0.63083, 9.88819], [0.63406, 9.89369], [0.64129, 9.89457], [0.64568, 9.8915], [0.65422, 9.87791], [0.65905, 9.87703], [0.66599, 9.8828], [0.67245, 9.88316], [0.67676, 9.88101], [0.67982, 9.87654], [0.68286, 9.88747], [0.68142, 9.89644], [0.67775, 9.90746], [0.65871, 9.92596], [0.65643, 9.9293], [0.65643, 9.93458], [0.66671, 9.94416], [0.66886, 9.94882], [0.66689, 9.95638], [0.67465, 9.95974], [0.67675, 9.96866], [0.67623, 9.97071], [0.67772, 9.98281], [0.6538, 9.98864], [0.64352, 9.989], [0.64959, 9.99687], [0.66031, 10.00456], [0.66718, 10.00868], [0.67295, 10.01583], [0.6779, 10.02765], [0.67845, 10.03836], [0.68202, 10.04633], [0.68697, 10.0532], [0.68779, 10.05788], [0.68614, 10.07272], [0.68669, 10.08206], [0.68532, 10.08673], [0.67295, 10.10817], [0.67229, 10.11622], [0.67359, 10.12715], [0.67578, 10.13699], [0.67558, 10.14082], [0.68098, 10.14191], [0.68477, 10.14527], [0.68834, 10.15571], [0.69799, 10.16711], [0.70474, 10.16803], [0.73452, 10.14364], [0.74026, 10.14005], [0.74277, 10.14507], [0.73811, 10.15296], [0.73883, 10.16014], [0.73308, 10.16839], [0.73667, 10.1727], [0.74421, 10.17592], [0.75425, 10.18238], [0.75784, 10.17951], [0.76789, 10.17485], [0.77399, 10.17664], [0.77752, 10.18001], [0.78116, 10.17951], [0.79408, 10.17198], [0.79731, 10.16767], [0.79838, 10.16193], [0.80376, 10.15368], [0.80879, 10.15189], [0.81417, 10.15476], [0.81956, 10.16211], [0.82457, 10.17503], [0.82667, 10.18656], [0.83925, 10.22745], [0.84974, 10.23478], [0.85707, 10.24107], [0.86336, 10.24422], [0.86651, 10.24422], [0.87699, 10.2547], [0.88748, 10.27357], [0.90166, 10.28999], [0.93759, 10.26383], [0.95437, 10.25061], [0.99677, 10.21519], [0.99999, 10.22002], [1.00167, 10.21834], [1.1574, 10.12983], [1.31098, 10.04241], [1.34156, 10.02498], [1.36411, 10.01214], [1.36512, 10.00328], [1.36615, 10.00226], [1.36686, 9.97415], [1.36642, 9.94771], [1.36391, 9.88579], [1.3664, 9.82316], [1.36612, 9.80661], [1.36675, 9.75082], [1.36335, 9.69719], [1.36975, 9.66155], [1.36655, 9.64994], [1.36655, 9.6115], [1.35854, 9.58868], [1.34301, 9.5489], [1.34253, 9.54583], [1.34773, 9.53662], [1.35934, 9.50779], [1.35854, 9.49018], [1.36065, 9.48701], [1.36536, 9.4856], [1.37538, 9.49123], [1.38977, 9.49717], [1.39477, 9.47996], [1.39821, 9.45398], [1.40026, 9.44434], [1.40066, 9.43473], [1.39986, 9.42232], [1.40146, 9.41671], [1.40186, 9.4055], [1.39986, 9.39509], [1.40266, 9.38148], [1.40306, 9.35505], [1.40787, 9.33503], [1.413, 9.32446], [1.38878, 9.30927], [1.38427, 9.30438], [1.37944, 9.29178], [1.37824, 9.28618], [1.37864, 9.28097], [1.37704, 9.26976], [1.37143, 9.26976], [1.36783, 9.26616], [1.36382, 9.25735], [1.36022, 9.25174], [1.35021, 9.25174], [1.3426, 9.25254], [1.31377, 9.24574], [1.31057, 9.24574], [1.29455, 9.24974], [1.28896, 9.25243], [1.26812, 9.24933], [1.24902, 9.24262], [1.23312, 9.23476], [1.22706, 9.22926], [1.21007, 9.22291], [1.20366, 9.22652], [1.19813, 9.23564], [1.1852, 9.23549], [1.17843, 9.22932], [1.17283, 9.22692], [1.16522, 9.21851], [1.15962, 9.21651], [1.1428, 9.21971], [1.13119, 9.22251], [1.12318, 9.22331], [1.11877, 9.22612], [1.11317, 9.22732], [1.10276, 9.22812], [1.09795, 9.22932], [1.08274, 9.23012], [1.07051, 9.22736], [1.04091, 9.2136], [1.02944, 9.21239], [1.01788, 9.21364], [1.01467, 9.21185], [1.00658, 9.20991]]]}, "id": "Kara"}, {"type": "Feature", "properties": {"region": "Maritime", "superficie_km2": 6383.07807997}, "geometry": {"type": "Polygon", "coordinates": [[[1.77534, 6.41279], [1.76954, 6.41155], [1.76922, 6.39924], [1.77432, 6.39415], [1.77082, 6.39168], [1.77242, 6.38026], [1.78193, 6.37395], [1.78937, 6.34988], [1.7878, 6.3439], [1.78272, 6.33914], [1.78695, 6.33194], [1.79241, 6.32879], [1.79842, 6.31351], [1.7979, 6.30682], [1.78965, 6.30276], [1.79565, 6.29363], [1.8055, 6.29101], [1.80718, 6.28443], [1.79998, 6.28089], [1.77029, 6.28188], [1.76907, 6.27519], [1.76416, 6.27184], [1.74923, 6.27128], [1.73641, 6.26457], [1.7099, 6.25677], [1.69461, 6.25673], [1.68979, 6.25276], [1.68065, 6.25432], [1.6682, 6.24761], [1.64816, 6.24844], [1.62938, 6.24241], [1.62766, 6.2257], [1.60695, 6.21967], [1.5875, 6.21628], [1.55835, 6.21276], [1.54207, 6.20499], [1.53349, 6.20454], [1.50048, 6.19887], [1.46878, 6.18805], [1.45635, 6.18629], [1.43363, 6.18236], [1.39914, 6.17705], [1.38929, 6.17415], [1.36554, 6.16713], [1.35906, 6.16615], [1.31981, 6.15199], [1.2909, 6.1425], [1.28686, 6.14237], [1.27581, 6.13708], [1.25868, 6.13198], [1.2497, 6.12745], [1.23432, 6.123], [1.2037, 6.10997], [1.19177, 6.10931], [1.19165, 6.15502], [1.17118, 6.15481], [1.1659, 6.15665], [1.15601, 6.15651], [1.14589, 6.1546], [1.12497, 6.15738], [1.10657, 6.15694], [1.09117, 6.15879], [1.08588, 6.16247], [1.08475, 6.17284], [1.08142, 6.18017], [1.0583, 6.22025], [1.04866, 6.2288], [1.04056, 6.23401], [1.02975, 6.23937], [1.02562, 6.24348], [1.00274, 6.30518], [0.9961, 6.32405], [0.96769, 6.32287], [0.92963, 6.32218], [0.90391, 6.32101], [0.89312, 6.33705], [0.86996, 6.36485], [0.85973, 6.37446], [0.84306, 6.38672], [0.82373, 6.39415], [0.81246, 6.39571], [0.79906, 6.39673], [0.78886, 6.39883], [0.78605, 6.40446], [0.78243, 6.41571], [0.77609, 6.42227], [0.7626, 6.43182], [0.75684, 6.43152], [0.74856, 6.44109], [0.74133, 6.46166], [0.7278, 6.47889], [0.72695, 6.4852], [0.72447, 6.48739], [0.71972, 6.50714], [0.71874, 6.51753], [0.72642, 6.5197], [0.73162, 6.51973], [0.73723, 6.52242], [0.74327, 6.52372], [0.75239, 6.52727], [0.76125, 6.52562], [0.76392, 6.52606], [0.77836, 6.53554], [0.79152, 6.54628], [0.79573, 6.55064], [0.80345, 6.55154], [0.80893, 6.551], [0.82022, 6.554], [0.82834, 6.56577], [0.83241, 6.57855], [0.83311, 6.58739], [0.8414, 6.61267], [0.84683, 6.62153], [0.85312, 6.62714], [0.85762, 6.63534], [0.86153, 6.64697], [0.86108, 6.64788], [0.8662, 6.6555], [0.86711, 6.6636], [0.8722, 6.68413], [0.87255, 6.68993], [0.87431, 6.69466], [0.8801, 6.70151], [0.88466, 6.70055], [0.90008, 6.70301], [0.89958, 6.72064], [0.90081, 6.73223], [0.90099, 6.74346], [0.89941, 6.76066], [0.89698, 6.76999], [0.90943, 6.78084], [0.92357, 6.78919], [0.93739, 6.80012], [0.95152, 6.80783], [0.96116, 6.81168], [0.96406, 6.81715], [0.96149, 6.82904], [0.96149, 6.84157], [0.9602, 6.8558], [0.96238, 6.85649], [0.97639, 6.8571], [0.9849, 6.85961], [0.99725, 6.86213], [1.00439, 6.86244], [1.01812, 6.86469], [1.03348, 6.87107], [1.05694, 6.86029], [1.06863, 6.85001], [1.07084, 6.84673], [1.09246, 6.82792], [1.09514, 6.81848], [1.10473, 6.80945], [1.12181, 6.80844], [1.133, 6.80479], [1.14183, 6.79406], [1.14997, 6.79299], [1.16209, 6.78491], [1.16276, 6.78161], [1.16937, 6.77812], [1.16982, 6.77571], [1.17378, 6.7744], [1.18149, 6.76872], [1.18875, 6.76809], [1.2033, 6.75518], [1.2075, 6.75014], [1.21213, 6.74664], [1.2196, 6.74711], [1.22595, 6.75328], [1.23009, 6.76231], [1.23622, 6.76936], [1.23973, 6.77091], [1.24415, 6.76477], [1.26022, 6.75868], [1.27517, 6.75601], [1.27567, 6.75667], [1.285, 6.76911], [1.29377, 6.77701], [1.30977, 6.78841], [1.3112, 6.78871], [1.32691, 6.79965], [1.35101, 6.81874], [1.36808, 6.82376], [1.38465, 6.83079], [1.40523, 6.83681], [1.41037, 6.84366], [1.42105, 6.84309], [1.43812, 6.83907], [1.4567, 6.83154], [1.47076, 6.83003], [1.48582, 6.83204], [1.49937, 6.83656], [1.51946, 6.84761], [1.53201, 6.85865], [1.54255, 6.87522], [1.54808, 6.88878], [1.55661, 6.90183], [1.56916, 6.90685], [1.5777, 6.90886], [1.57669, 6.92209], [1.58248, 6.91594], [1.5928, 6.91013], [1.60519, 6.90605], [1.60556, 6.89712], [1.60386, 6.89059], [1.60663, 6.88339], [1.59635, 6.8734], [1.59465, 6.86756], [1.59569, 6.86378], [1.6019, 6.85281], [1.60126, 6.83839], [1.59956, 6.83186], [1.6037, 6.82707], [1.61331, 6.82881], [1.61504, 6.82538], [1.60819, 6.81884], [1.59893, 6.81263], [1.59689, 6.80644], [1.59862, 6.80061], [1.60893, 6.79995], [1.61134, 6.79824], [1.61342, 6.79138], [1.61001, 6.78347], [1.60833, 6.77042], [1.62208, 6.76462], [1.62588, 6.75983], [1.62059, 6.75547], [1.61813, 6.75079], [1.62089, 6.74558], [1.61953, 6.74145], [1.60829, 6.73373], [1.60006, 6.72601], [1.59292, 6.72599], [1.59102, 6.7172], [1.59215, 6.70621], [1.58969, 6.70291], [1.58475, 6.70152], [1.5812, 6.69327], [1.57653, 6.69381], [1.57379, 6.68885], [1.57769, 6.68571], [1.59024, 6.68415], [1.59356, 6.67537], [1.60376, 6.66634], [1.61152, 6.64163], [1.60301, 6.63694], [1.60303, 6.63035], [1.61019, 6.62488], [1.61296, 6.61664], [1.61243, 6.61087], [1.6218, 6.60128], [1.62701, 6.60322], [1.63305, 6.60269], [1.63663, 6.6005], [1.64104, 6.58308], [1.64362, 6.58084], [1.65615, 6.5778], [1.66273, 6.58419], [1.6702, 6.58553], [1.67416, 6.58312], [1.67571, 6.57961], [1.67418, 6.57301], [1.66641, 6.56343], [1.6684, 6.55794], [1.6739, 6.5562], [1.684, 6.56062], [1.68775, 6.55359], [1.69632, 6.5534], [1.69853, 6.54813], [1.69569, 6.54285], [1.70186, 6.53627], [1.70236, 6.51297], [1.69687, 6.51296], [1.69424, 6.50966], [1.69558, 6.50043], [1.70327, 6.49913], [1.70591, 6.4976], [1.7125, 6.50025], [1.71954, 6.49544], [1.7226, 6.5016], [1.7259, 6.50183], [1.72899, 6.49612], [1.73033, 6.48755], [1.73517, 6.48603], [1.7376, 6.48098], [1.73387, 6.47635], [1.73629, 6.47438], [1.74069, 6.47483], [1.75082, 6.46409], [1.75436, 6.45508], [1.75305, 6.45047], [1.75395, 6.44519], [1.75771, 6.43355], [1.76475, 6.4272], [1.77267, 6.4259], [1.77639, 6.42942], [1.78079, 6.4268], [1.78059, 6.4213], [1.77563, 6.41755], [1.77534, 6.41279]]]}, "id": "Maritime"}, {"type": "Feature", "properties": {"region": "Plateaux", "superficie_km2": 17406.51973636}, "geometry": {"type": "Polygon", "coordinates": [[[0.96149, 6.84157], [0.96149, 6.82904], [0.96406, 6.81715], [0.96116, 6.81168], [0.95152, 6.80783], [0.93739, 6.80012], [0.92357, 6.78919], [0.90943, 6.78084], [0.89698, 6.76999], [0.89941, 6.76066], [0.90099, 6.74346], [0.90081, 6.73223], [0.89958, 6.72064], [0.90008, 6.70301], [0.88466, 6.70055], [0.8801, 6.70151], [0.87431, 6.69466], [0.87255, 6.68993], [0.8722, 6.68413], [0.86711, 6.6636], [0.8662, 6.6555], [0.86108, 6.64788], [0.86153, 6.64697], [0.85762, 6.63534], [0.85312, 6.62714], [0.84683, 6.62153], [0.8414, 6.61267], [0.83311, 6.58739], [0.83241, 6.57855], [0.82834, 6.56577], [0.82022, 6.554], [0.80893, 6.551], [0.80345, 6.55154], [0.79573, 6.55064], [0.79152, 6.54628], [0.77836, 6.53554], [0.76392, 6.52606], [0.76125, 6.52562], [0.75239, 6.52727], [0.74327, 6.52372], [0.73723, 6.52242], [0.73162, 6.51973], [0.72642, 6.5197], [0.71874, 6.51753], [0.71376, 6.51993], [0.71295, 6.52526], [0.71414, 6.53047], [0.73809, 6.55329], [0.74002, 6.57032], [0.73745, 6.57707], [0.72685, 6.58543], [0.7156, 6.58478], [0.70275, 6.58061], [0.69118, 6.57836], [0.68122, 6.58382], [0.68829, 6.59217], [0.68529, 6.59849], [0.67995, 6.60692], [0.6709, 6.61124], [0.65856, 6.60651], [0.65321, 6.61001], [0.65157, 6.61433], [0.64601, 6.6207], [0.64293, 6.62831], [0.63779, 6.63222], [0.63594, 6.64086], [0.63532, 6.65073], [0.63923, 6.66718], [0.63964, 6.67459], [0.64375, 6.69248], [0.6419, 6.70194], [0.64478, 6.71201], [0.64128, 6.72661], [0.64622, 6.74101], [0.64375, 6.74512], [0.64005, 6.748], [0.62892, 6.74874], [0.62374, 6.75394], [0.62058, 6.75473], [0.60742, 6.75328], [0.59676, 6.76039], [0.58768, 6.76276], [0.57649, 6.76131], [0.57228, 6.76526], [0.57096, 6.77171], [0.57175, 6.77816], [0.56978, 6.78342], [0.56701, 6.78605], [0.57019, 6.79169], [0.5665, 6.79999], [0.56887, 6.80328], [0.57243, 6.80354], [0.58125, 6.79867], [0.57782, 6.80762], [0.56866, 6.81319], [0.55529, 6.82519], [0.5476, 6.82772], [0.54423, 6.82583], [0.53907, 6.82709], [0.53675, 6.82572], [0.53012, 6.82583], [0.52802, 6.84299], [0.53486, 6.8631], [0.53875, 6.86991], [0.53765, 6.87236], [0.54176, 6.87931], [0.54734, 6.88099], [0.55153, 6.88713], [0.55749, 6.90152], [0.55811, 6.91407], [0.55523, 6.92291], [0.54618, 6.9334], [0.52624, 6.93957], [0.51472, 6.94841], [0.51657, 6.96672], [0.51986, 6.96877], [0.52274, 6.97433], [0.53129, 6.97848], [0.55749, 6.99983], [0.57127, 7.00559], [0.5832, 7.0171], [0.58587, 7.0206], [0.59883, 7.02841], [0.59949, 7.03017], [0.59739, 7.04219], [0.59554, 7.05844], [0.59719, 7.06605], [0.61046, 7.0804], [0.6144, 7.0922], [0.61174, 7.09839], [0.60339, 7.11092], [0.59824, 7.12153], [0.59824, 7.13277], [0.60596, 7.14948], [0.62106, 7.17069], [0.62459, 7.17872], [0.63166, 7.20025], [0.64323, 7.27046], [0.64323, 7.28139], [0.65384, 7.3026], [0.65705, 7.31738], [0.65319, 7.32863], [0.64998, 7.3508], [0.64548, 7.35996], [0.64612, 7.3667], [0.64862, 7.37559], [0.64805, 7.37539], [0.64604, 7.38945], [0.64243, 7.39347], [0.62837, 7.4015], [0.61471, 7.4023], [0.59623, 7.39226], [0.57856, 7.38744], [0.57053, 7.38784], [0.56049, 7.39065], [0.55165, 7.39789], [0.54562, 7.39869], [0.53478, 7.40913], [0.53036, 7.41877], [0.52916, 7.43243], [0.52514, 7.44649], [0.51951, 7.45131], [0.51389, 7.4489], [0.51269, 7.45492], [0.50224, 7.46376], [0.50827, 7.47219], [0.5155, 7.47661], [0.51711, 7.48384], [0.5151, 7.49147], [0.50907, 7.51839], [0.50827, 7.52441], [0.51309, 7.5453], [0.51751, 7.55895], [0.51791, 7.58747], [0.52755, 7.5943], [0.53679, 7.59992], [0.54522, 7.60073], [0.54844, 7.60715], [0.55767, 7.60876], [0.57695, 7.61642], [0.57695, 7.62121], [0.57334, 7.63286], [0.57414, 7.64853], [0.57977, 7.67664], [0.58981, 7.70717], [0.59704, 7.70797], [0.60788, 7.70677], [0.61592, 7.70195], [0.61752, 7.70476], [0.61673, 7.71111], [0.61632, 7.71119], [0.6115, 7.73288], [0.60828, 7.74493], [0.60828, 7.75296], [0.61438, 7.76102], [0.61585, 7.76908], [0.61471, 7.77248], [0.60941, 7.77892], [0.60903, 7.78611], [0.61357, 7.79785], [0.61395, 7.81412], [0.61585, 7.82472], [0.61585, 7.83646], [0.6219, 7.85954], [0.61817, 7.88042], [0.61622, 7.88453], [0.61602, 7.89098], [0.63969, 7.89399], [0.65408, 7.89361], [0.66619, 7.89399], [0.67868, 7.89702], [0.68493, 7.90213], [0.70007, 7.92106], [0.69515, 7.9362], [0.69056, 7.94266], [0.68966, 7.94774], [0.69004, 7.95569], [0.69288, 7.95967], [0.70139, 7.96326], [0.70953, 7.96459], [0.7101, 7.95872], [0.71265, 7.95186], [0.71729, 7.95001], [0.72306, 7.94992], [0.73435, 7.94727], [0.74762, 7.94222], [0.75846, 7.93912], [0.77307, 7.93235], [0.79603, 7.93828], [0.80927, 7.94244], [0.82063, 7.9485], [0.82593, 7.9538], [0.83161, 7.96818], [0.83014, 7.97439], [0.83111, 7.98384], [0.83388, 7.99392], [0.83159, 7.99862], [0.83426, 8.00201], [0.83523, 8.00661], [0.83353, 8.01654], [0.83712, 8.03874], [0.85317, 8.03593], [0.8618, 8.03184], [0.86816, 8.02215], [0.88451, 7.95946], [0.89905, 7.96128], [0.91268, 7.96461], [0.91903, 7.96461], [0.93084, 7.96794], [0.94084, 7.97158], [0.94629, 7.97491], [0.96325, 7.98097], [0.96991, 7.97885], [0.9793, 7.9743], [1.00534, 7.96764], [1.01806, 7.96643], [1.02987, 7.96431], [1.03847, 7.9606], [1.05209, 7.95473], [1.05928, 7.94981], [1.07442, 7.94905], [1.09449, 7.95246], [1.10054, 7.95435], [1.12515, 7.95776], [1.1418, 7.96192], [1.14856, 7.96607], [1.15429, 7.97252], [1.16981, 7.98539], [1.18571, 7.98993], [1.19555, 8.00053], [1.19745, 8.01529], [1.20615, 8.02438], [1.20804, 8.02514], [1.21675, 8.03346], [1.22659, 8.03119], [1.23476, 8.03228], [1.23574, 8.03715], [1.24858, 8.05193], [1.251, 8.05677], [1.25221, 8.06912], [1.2507, 8.07832], [1.2481, 8.08201], [1.23696, 8.08709], [1.23042, 8.09194], [1.23042, 8.09557], [1.23381, 8.09896], [1.24132, 8.09993], [1.24786, 8.09969], [1.25464, 8.10236], [1.25621, 8.10655], [1.25645, 8.13248], [1.25936, 8.14653], [1.26226, 8.15137], [1.26372, 8.15791], [1.2642, 8.16567], [1.26444, 8.18626], [1.26275, 8.19352], [1.26033, 8.1991], [1.25185, 8.20418], [1.24627, 8.21048], [1.24337, 8.21654], [1.24288, 8.22041], [1.24603, 8.23741], [1.25088, 8.24211], [1.2599, 8.24603], [1.25458, 8.26014], [1.24872, 8.26939], [1.24008, 8.27505], [1.23751, 8.28322], [1.23237, 8.28939], [1.22998, 8.29589], [1.22929, 8.30137], [1.22963, 8.32569], [1.231, 8.33048], [1.231, 8.34076], [1.22929, 8.34692], [1.231, 8.35377], [1.23537, 8.35972], [1.23683, 8.36131], [1.22895, 8.37843], [1.2447, 8.37295], [1.25943, 8.37227], [1.27758, 8.37261], [1.28203, 8.36781], [1.29779, 8.36542], [1.30224, 8.36644], [1.30498, 8.36473], [1.3108, 8.3661], [1.31114, 8.36336], [1.32005, 8.35788], [1.32244, 8.35857], [1.33477, 8.35822], [1.33854, 8.35959], [1.35738, 8.35103], [1.36388, 8.35103], [1.37142, 8.3548], [1.38478, 8.35514], [1.38888, 8.35891], [1.40498, 8.36268], [1.41354, 8.36302], [1.44197, 8.36165], [1.44642, 8.36199], [1.46286, 8.36576], [1.46937, 8.36816], [1.48342, 8.3824], [1.48999, 8.39281], [1.50068, 8.40322], [1.51301, 8.42815], [1.51849, 8.4339], [1.52479, 8.43774], [1.53849, 8.44021], [1.57109, 8.4498], [1.59383, 8.45528], [1.61959, 8.47007], [1.64992, 8.47812], [1.6464, 8.46984], [1.64288, 8.455], [1.63966, 8.43251], [1.64529, 8.42407], [1.64609, 8.41725], [1.64368, 8.41323], [1.63725, 8.41042], [1.63324, 8.40399], [1.62962, 8.39234], [1.62681, 8.37989], [1.62532, 8.3516], [1.63043, 8.34374], [1.63685, 8.33972], [1.64127, 8.29956], [1.63605, 7.99148], [1.63484, 7.95613], [1.63404, 7.92098], [1.63272, 7.9173], [1.63404, 7.90317], [1.63404, 7.8969], [1.63216, 7.88623], [1.63153, 7.85234], [1.62965, 7.8266], [1.6353, 7.81029], [1.63592, 7.79648], [1.63279, 7.73184], [1.6309, 7.67661], [1.63148, 7.6613], [1.63694, 7.64138], [1.65076, 7.61343], [1.64915, 7.5588], [1.64947, 7.54819], [1.653, 7.53566], [1.65925, 7.52129], [1.66875, 7.51815], [1.67036, 7.51301], [1.6755, 7.50658], [1.67743, 7.49758], [1.6755, 7.49437], [1.65429, 7.49437], [1.64818, 7.49244], [1.64401, 7.48569], [1.64208, 7.46834], [1.63565, 7.41661], [1.63492, 7.40069], [1.63597, 7.39104], [1.63597, 7.32396], [1.63637, 7.26251], [1.63757, 7.20587], [1.63717, 7.19744], [1.63757, 7.12554], [1.63977, 7.06729], [1.64159, 6.99399], [1.60745, 6.9956], [1.59821, 6.99399], [1.58736, 6.99479], [1.58736, 6.99761], [1.55816, 6.998], [1.55762, 6.99522], [1.55963, 6.98467], [1.55912, 6.97112], [1.56766, 6.96057], [1.57569, 6.94652], [1.57669, 6.92209], [1.5777, 6.90886], [1.56916, 6.90685], [1.55661, 6.90183], [1.54808, 6.88878], [1.54255, 6.87522], [1.53201, 6.85865], [1.51946, 6.84761], [1.49937, 6.83656], [1.48582, 6.83204], [1.47076, 6.83003], [1.4567, 6.83154], [1.43812, 6.83907], [1.42105, 6.84309], [1.41037, 6.84366], [1.40523, 6.83681], [1.38465, 6.83079], [1.36808, 6.82376], [1.35101, 6.81874], [1.32691, 6.79965], [1.3112, 6.78871], [1.30977, 6.78841], [1.29377, 6.77701], [1.285, 6.76911], [1.27567, 6.75667], [1.27517, 6.75601], [1.26022, 6.75868], [1.24415, 6.76477], [1.23973, 6.77091], [1.23622, 6.76936], [1.23009, 6.76231], [1.22595, 6.75328], [1.2196, 6.74711], [1.21213, 6.74664], [1.2075, 6.75014], [1.2033, 6.75518], [1.18875, 6.76809], [1.18149, 6.76872], [1.17378, 6.7744], [1.16982, 6.77571], [1.16937, 6.77812], [1.16276, 6.78161], [1.16209, 6.78491], [1.14997, 6.79299], [1.14183, 6.79406], [1.133, 6.80479], [1.12181, 6.80844], [1.10473, 6.80945], [1.09514, 6.81848], [1.09246, 6.82792], [1.07084, 6.84673], [1.06863, 6.85001], [1.05694, 6.86029], [1.03348, 6.87107], [1.01812, 6.86469], [1.00439, 6.86244], [0.99725, 6.86213], [0.9849, 6.85961], [0.97639, 6.8571], [0.96238, 6.85649], [0.9602, 6.8558], [0.96149, 6.84157]]]}, "id": "Plateaux"}, {"type": "Feature", "properties": {"region": "Savanes", "superficie_km2": 8560.37616593}, "geometry": {"type": "Polygon", "coordinates": [[[0.80981, 10.64029], [0.80934, 10.62562], [0.80816, 10.61459], [0.80646, 10.58116], [0.80143, 10.55892], [0.79175, 10.5356], [0.78744, 10.51945], [0.78349, 10.51264], [0.78206, 10.49793], [0.78314, 10.4947], [0.78242, 10.48358], [0.77847, 10.44877], [0.7747, 10.412], [0.77578, 10.39837], [0.77434, 10.38509], [0.8235, 10.35101], [0.83928, 10.33881], [0.84646, 10.33199], [0.85973, 10.32087], [0.87157, 10.3119], [0.90166, 10.28999], [0.88748, 10.27357], [0.87699, 10.2547], [0.86651, 10.24422], [0.86336, 10.24422], [0.85707, 10.24107], [0.84974, 10.23478], [0.83925, 10.22745], [0.82667, 10.18656], [0.82457, 10.17503], [0.81956, 10.16211], [0.81417, 10.15476], [0.80879, 10.15189], [0.80376, 10.15368], [0.79838, 10.16193], [0.79731, 10.16767], [0.79408, 10.17198], [0.78116, 10.17951], [0.77752, 10.18001], [0.77399, 10.17664], [0.76789, 10.17485], [0.75784, 10.17951], [0.75425, 10.18238], [0.74421, 10.17592], [0.73667, 10.1727], [0.73308, 10.16839], [0.73883, 10.16014], [0.73811, 10.15296], [0.74277, 10.14507], [0.74026, 10.14005], [0.73452, 10.14364], [0.70474, 10.16803], [0.69799, 10.16711], [0.68834, 10.15571], [0.68477, 10.14527], [0.68098, 10.14191], [0.67558, 10.14082], [0.67578, 10.13699], [0.67359, 10.12715], [0.67229, 10.11622], [0.67295, 10.10817], [0.68532, 10.08673], [0.68669, 10.08206], [0.68614, 10.07272], [0.68779, 10.05788], [0.68697, 10.0532], [0.68202, 10.04633], [0.67845, 10.03836], [0.6779, 10.02765], [0.67295, 10.01583], [0.66718, 10.00868], [0.66031, 10.00456], [0.64959, 9.99687], [0.64352, 9.989], [0.6538, 9.98864], [0.67772, 9.98281], [0.67623, 9.97071], [0.67675, 9.96866], [0.67465, 9.95974], [0.66689, 9.95638], [0.66886, 9.94882], [0.66671, 9.94416], [0.65643, 9.93458], [0.65643, 9.9293], [0.65871, 9.92596], [0.67775, 9.90746], [0.68142, 9.89644], [0.68286, 9.88747], [0.67982, 9.87654], [0.67676, 9.88101], [0.67245, 9.88316], [0.66599, 9.8828], [0.65905, 9.87703], [0.65422, 9.87791], [0.64568, 9.8915], [0.64129, 9.89457], [0.63406, 9.89369], [0.63083, 9.88819], [0.62617, 9.88352], [0.62225, 9.88338], [0.61181, 9.88701], [0.60063, 9.8892], [0.59209, 9.88635], [0.58792, 9.88591], [0.58463, 9.88137], [0.57055, 9.88498], [0.54935, 9.89282], [0.52408, 9.90154], [0.52175, 9.90677], [0.51856, 9.90822], [0.51507, 9.91664], [0.51507, 9.92478], [0.51914, 9.92739], [0.52175, 9.93291], [0.52495, 9.9361], [0.52698, 9.94336], [0.51972, 9.9515], [0.51391, 9.95034], [0.50636, 9.94133], [0.49939, 9.94162], [0.49716, 9.94666], [0.49155, 9.95121], [0.48603, 9.95353], [0.47819, 9.95121], [0.47121, 9.94801], [0.46541, 9.94394], [0.45611, 9.94714], [0.45379, 9.95266], [0.44711, 9.95644], [0.42619, 9.95847], [0.42096, 9.96399], [0.41806, 9.97619], [0.42271, 9.98635], [0.42242, 9.9942], [0.41545, 10.00901], [0.40789, 10.01947], [0.40786, 10.02219], [0.41126, 10.03959], [0.41485, 10.05251], [0.41341, 10.06004], [0.41019, 10.06004], [0.39691, 10.07152], [0.38471, 10.07726], [0.37754, 10.07762], [0.36319, 10.07977], [0.35386, 10.08264], [0.34955, 10.08731], [0.3474, 10.09556], [0.35063, 10.10381], [0.35691, 10.12549], [0.35655, 10.13562], [0.35784, 10.13915], [0.34887, 10.16093], [0.35015, 10.16926], [0.34887, 10.18431], [0.35239, 10.19745], [0.35399, 10.20706], [0.35816, 10.21667], [0.35906, 10.22597], [0.3587, 10.24284], [0.35942, 10.25324], [0.36193, 10.25791], [0.37341, 10.26365], [0.37915, 10.2719], [0.37413, 10.27333], [0.36982, 10.28015], [0.37987, 10.29127], [0.39314, 10.30132], [0.39207, 10.3049], [0.38453, 10.30849], [0.37807, 10.30849], [0.36588, 10.30634], [0.35655, 10.30742], [0.34399, 10.30526], [0.31888, 10.30526], [0.31744, 10.30885], [0.32031, 10.3128], [0.33143, 10.3189], [0.33215, 10.32894], [0.32534, 10.33504], [0.31708, 10.33253], [0.31457, 10.33361], [0.31242, 10.34007], [0.31098, 10.3537], [0.30632, 10.36339], [0.30022, 10.36769], [0.28946, 10.37236], [0.28838, 10.37774], [0.29897, 10.39155], [0.2943, 10.40267], [0.28677, 10.4077], [0.28174, 10.41559], [0.27313, 10.41667], [0.26955, 10.41523], [0.26524, 10.40841], [0.25986, 10.40518], [0.2351, 10.40698], [0.22757, 10.41021], [0.21835, 10.4173], [0.21331, 10.4173], [0.20858, 10.41351], [0.20259, 10.41162], [0.20511, 10.40247], [0.20385, 10.39837], [0.19597, 10.39901], [0.19281, 10.3968], [0.18903, 10.39964], [0.18335, 10.41276], [0.17545, 10.41638], [0.16952, 10.42286], [0.16602, 10.43131], [0.16766, 10.44004], [0.16517, 10.44462], [0.15481, 10.45397], [0.1533, 10.45784], [0.15366, 10.47213], [0.14789, 10.48733], [0.1413, 10.51246], [0.14153, 10.51416], [0.13159, 10.53102], [0.11879, 10.53914], [0.08866, 10.54984], [0.07173, 10.55453], [0.06358, 10.56196], [0.05912, 10.56821], [0.04841, 10.58748], [0.03388, 10.59631], [0.01155, 10.60263], [0.00071, 10.6098], [-0.02093, 10.61952], [-0.02633, 10.6214], [-0.0327, 10.62207], [-0.04279, 10.62754], [-0.05433, 10.63154], [-0.06398, 10.64138], [-0.06824, 10.65126], [-0.07118, 10.67569], [-0.08717, 10.70846], [-0.08798, 10.71499], [-0.08458, 10.71865], [-0.07435, 10.72384], [-0.07613, 10.72765], [-0.074, 10.73503], [-0.0776, 10.75225], [-0.07292, 10.75989], [-0.07555, 10.76516], [-0.07348, 10.76966], [-0.06759, 10.76898], [-0.06212, 10.78143], [-0.05898, 10.7846], [-0.0534, 10.78495], [-0.04846, 10.78993], [-0.04554, 10.79981], [-0.03429, 10.80769], [-0.0282, 10.81821], [-0.02646, 10.82539], [-0.03065, 10.8364], [-0.03396, 10.85026], [-0.03124, 10.87277], [-0.01915, 10.90291], [-0.01407, 10.91065], [-0.01575, 10.93241], [-0.01167, 10.95645], [-0.00737, 10.95952], [0.00686, 10.96153], [0.01785, 10.97235], [0.02178, 10.97415], [0.02671, 10.97432], [0.02982, 10.9776], [0.03212, 10.98449], [0.02962, 10.99319], [0.02703, 11.00581], [0.02539, 11.02172], [0.02409, 11.05505], [0.02081, 11.05992], [0.01277, 11.08652], [0.00782, 11.09765], [-0.00055, 11.10323], [-0.01602, 11.10918], [-0.02583, 11.10804], [-0.05478, 11.09986], [-0.06182, 11.09266], [-0.06749, 11.08853], [-0.07506, 11.08825], [-0.10483, 11.09495], [-0.11874, 11.10019], [-0.12479, 11.10493], [-0.13575, 11.10607], [-0.13984, 11.10427], [-0.14229, 11.10656], [-0.14197, 11.11916], [-0.13362, 11.12979], [-0.13171, 11.13804], [-0.11532, 11.13503], [-0.09351, 11.12929], [-0.07621, 11.12832], [-0.05466, 11.12549], [-0.03614, 11.1221], [-0.00647, 11.11571], [0.03551, 11.11131], [0.04308, 11.10879], [0.07154, 11.10074], [0.10077, 11.09295], [0.14608, 11.08448], [0.1698, 11.07843], [0.19031, 11.07229], [0.1913, 11.07158], [0.26663, 11.0568], [0.29123, 11.05065], [0.3144, 11.04866], [0.33264, 11.04758], [0.35926, 11.04474], [0.39236, 11.03754], [0.41399, 11.03273], [0.44488, 11.02334], [0.50393, 11.01274], [0.50272, 11.00427], [0.49742, 10.99503], [0.49136, 10.98685], [0.495, 10.98473], [0.50711, 10.98473], [0.50984, 10.97777], [0.50923, 10.95263], [0.50075, 10.93658], [0.5377, 10.95778], [0.55072, 10.96717], [0.57555, 10.97868], [0.58221, 10.97898], [0.59099, 10.97595], [0.59711, 10.97912], [0.61128, 10.98473], [0.62672, 10.99352], [0.63914, 10.99957], [0.65004, 10.99836], [0.67094, 10.99745], [0.69607, 10.99745], [0.71454, 10.99836], [0.7415, 10.99624], [0.75512, 10.99715], [0.76148, 10.99654], [0.78752, 10.99715], [0.78874, 10.99685], [0.83022, 10.99654], [0.84809, 10.99745], [0.85445, 10.99533], [0.86808, 10.99533], [0.8917, 10.99654], [0.89775, 10.99806], [0.90108, 10.99594], [0.91229, 10.99654], [0.90653, 10.97292], [0.90017, 10.95415], [0.89957, 10.94476], [0.89018, 10.92023], [0.89109, 10.91296], [0.90078, 10.88692], [0.88503, 10.86148], [0.8814, 10.84877], [0.87747, 10.8253], [0.87369, 10.80637], [0.86801, 10.79501], [0.85192, 10.77561], [0.84057, 10.75858], [0.83678, 10.75479], [0.82543, 10.72735], [0.82353, 10.71931], [0.81975, 10.71079], [0.81502, 10.70464], [0.81265, 10.69139], [0.81205, 10.6803], [0.80981, 10.64029]]]}, "id": "Savanes"}]}